SENTINEL-6              
1 46984U 20086A   24288.14130522 -.00000021  00000+0  17324-3 0  9992
2 46984  66.0424 324.2046 0007889 269.4959  90.5152 12.80929244182185
